#aV2023  6 30  0  0  0.00000000     288 DD+AD WGS84 FIT  NGA
## 2268 432000.00000000   300.00000000 60125 0.0000000000000
+   32     1  2  3  4  5  6  7  8  9 10 11 12 13 14 15 16 17
+         18 19 20 21 22 23 24 25 26 27 28 29 30 31 32  0  0
+          0  0  0  0  0  0  0  0  0  0  0  0  0  0  0  0  0
+          0  0  0  0  0  0  0  0  0  0  0  0  0  0  0  0  0
+          0  0  0  0  0  0  0  0  0  0  0  0  0  0  0  0  0
++         2  2  2  2  2  2  2  2  2  2  2  2  2  2  2  2  2
++         2  2  2  2  2  2  2  2  2  2  2  2  2  2  2  0  0
++         0  0  0  0  0  0  0  0  0  0  0  0  0  0  0  0  0
++         0  0  0  0  0  0  0  0  0  0  0  0  0  0  0  0  0
++         0  0  0  0  0  0  0  0  0  0  0  0  0  0  0  0  0
%c cc cc ccc ccc cccc cccc cccc cccc ccccc ccccc ccccc ccccc
%c cc cc ccc ccc cccc cccc cccc cccc ccccc ccccc ccccc ccccc
%f  0.0000000  0.000000000  0.00000000000  0.000000000000000
%f  0.0000000  0.000000000  0.00000000000  0.000000000000000
%i    0    0    0    0      0      0      0      0         0
%i    0    0    0    0      0      0      0      0         0
/*      NGA, ST. LOUIS,MO.                                  
/*   EPHEMERIS COMPUTED FROM 2 DAYS OF DATA                 
/*   EPOCHA v8 SMOOTHER                                     
/*   G2139 IERS2010 SATIGS SATAPC                           
*  2023  6 30 15 30  0.00000000
P  1  21588.056402  14006.898608   6923.769638    175.343484                    
V  1   5587.185103   7409.921712 -30550.804504     -0.021016                    
P  2  21720.757677  15394.478128   1434.022736   -580.793084                    
V  2   -548.019741   2696.665739 -31735.885045      0.037302                    
P  3  13512.004336   6608.208661  21762.967670   -251.138555                    
V  3  -6141.536770  27212.799710  -4306.503155      0.147290                    
P  4  23712.431028   1879.644209  11947.301915     82.639296                    
V  4 -13919.686890   6276.311584  26551.042581      0.106012                    
P  5  -6482.656789 -21425.249582 -14387.778784   -133.101377                    
V  5   4948.781429 -17417.357255  24116.054448     -0.014558                    
P  6   3593.808307 -15647.496734  21196.770660    581.778277                    
V  6  20061.686464  17665.992333   9757.657505     -0.027756                    
P  7  19393.070010    326.570273 -17888.509207    138.193454                    
V  7  16338.384176  16991.297442  17092.149572     -0.105169                    
P  8  15481.318676   9213.660619 -19716.249413   -129.887247                    
V  8 -23002.408182   9226.613999 -13413.242600     -0.018208                    
P  9  25547.984695  -6708.105792   2918.291775   -123.478769                    
V  9  -2627.447508   3993.580719  31340.213216      0.090971                    
P 10 -11018.715409  22089.960209  -9191.072951    -43.289557                    
V 10    247.361698 -12214.634792 -29396.969347     -0.015494                    
P 11 -10162.204622 -21602.941810  11688.054119   -256.543580                    
V 11  12051.551026   8892.482164  26889.523966     -0.156528                    
P 12 -11872.701581 -10895.419122  20851.144630   -395.001342                    
V 12   8223.765143 -25818.527028  -8617.143673     -0.046621                    
P 13  -6980.526600 -13900.587368 -21733.387464    540.979272                    
V 13  26649.035226  -4997.360119  -5202.724764      0.050536                    
P 14  13445.710105 -19615.397583 -11646.018137    107.439311                    
V 14   -835.466034  15137.591722 -26577.928881      0.122104                    
P 15 -16986.656189  -7752.189924 -19445.131676     53.677371                    
V 15  20720.730633 -11648.535788 -13532.538982      0.035356                    
P 16   1310.877808  23634.322965 -11877.602672   -485.997686                    
V 16  -6754.096910  13375.657811  26992.915084      0.041530                    
P 17  18803.207534 -13970.266923  13052.215151    719.867357                    
V 17  15754.716664  -2231.720889 -25835.330428      0.010017                    
P 18 -17259.801703   2523.456799 -20079.955296   -327.834633                    
V 18 -17912.175021 -18040.158492  12971.272310     -0.145969                    
P 19  12252.087635 -14969.415274  17834.338437    337.597350                    
V 19  23024.796485  -3137.467584 -18535.658426      0.051360                    
P 20  -2196.046509 -26158.910531  -4622.148667    425.196510                    
V 20   3208.753318  -5758.608518  30649.347797     -0.020477                    
P 21  20893.031438  17053.441435  -1394.025020    152.641657                    
V 21  -3145.765455    217.855346 -31140.870960     -0.003593                    
P 22  -8355.861545  16101.698397  19799.702130    505.856049                    
V 22 -23849.913887   4344.069330 -14073.926798      0.057468                    
P 23 -14930.515510  11733.009281 -18498.143976     38.349617                    
V 23   2924.502069 -23377.391998 -17338.558676      0.039061                    
P 24 -22074.058337 -15034.778238   1731.646257   -242.462219                    
V 24    -81.925786  -4225.146063 -30766.834412     -0.126871                    
P 25 -15731.065941   3308.142917  20787.544264    453.181292                    
V 25   4470.278415 -26840.896288   7801.220444      0.024307                    
P 26  -4070.238390  26049.764880    450.941993    237.780442                    
V 26  -3833.007244  -1274.313701  31359.411818     -0.009908                    
P 27   3270.675937  14880.031547 -21990.088599      6.209360                    
V 27 -26066.184733   8193.600852   2089.108510     -0.074287                    
P 28  -5211.733227  15024.478531  21253.266652     83.566213                    
V 28 -21061.021111 -16958.976129   6814.131502     -0.003286                    
P 29 -26034.219744   3160.719099   4475.525412   -604.315973                    
V 29   5048.391780  -3488.283694  31357.963577     -0.010112                    
P 30  12684.013687  -9574.375987 -21180.420596   -507.559738                    
V 30  19888.083200  18634.538551   3202.288229      0.026218                    
P 31   5275.027766  20373.498642  15765.040649   -219.185558                    
V 31 -16560.922720 -12368.887099  21708.056403     -0.007359                    
P 32 -15954.537860  15802.087883  14211.173572   -511.466738                    
V 32 -17613.438629   3502.443188 -24168.664448     -0.080318                    
EOF
